[{"OBJECT_NAME":"STARLINK-36240","OBJECT_ID":"2025-298B","EPOCH":"2026-03-09T22:38:13.077024","MEAN_MOTION":14.9914115,"ECCENTRICITY":0.00027696,"INCLINATION":70.0016,"RA_OF_ASC_NODE":13.8861,"ARG_OF_PERICENTER":258.7048,"MEAN_ANOMALY":101.38,"EPHEMERIS_TYPE":0,"CLASSIFICATION_TYPE":"U","NORAD_CAT_ID":67076,"ELEMENT_SET_NO":999,"REV_AT_EPOCH":1325,"BSTAR":0.00087635231,"MEAN_MOTION_DOT":0.00010601,"MEAN_MOTION_DDOT":0},{"OBJECT_NAME":"CZ-2D DEB","OBJECT_ID":"2017-060D","EPOCH":"2026-03-09T09:20:51.218016","MEAN_MOTION":14.94784327,"ECCENTRICITY":0.00290231,"INCLINATION":98.2151,"RA_OF_ASC_NODE":220.4386,"ARG_OF_PERICENTER":85.7344,"MEAN_ANOMALY":274.7191,"EPHEMERIS_TYPE":0,"CLASSIFICATION_TYPE":"U","NORAD_CAT_ID":44611,"ELEMENT_SET_NO":999,"REV_AT_EPOCH":45223,"BSTAR":0.00060475076,"MEAN_MOTION_DOT":6.57e-5,"MEAN_MOTION_DDOT":0}]
